CUTE-1 (CO-55)          
1 27844U 03031E   19270.96263258  .00000053  00000-0  43326-4 0  9992
2 27844  98.6855 277.6663 0010981  97.3711 262.8715 14.22196226842642
CUBESAT XI-IV (CO-57)   
1 27848U 03031J   19271.47627048  .00000039  00000-0  37308-4 0  9991
2 27848  98.6931 278.6935 0010832 106.5164 253.7205 14.21789238842603
CUBESAT XI-V            
1 28895U 05043F   19271.09414443  .00000106  00000-0  29108-4 0  9994
2 28895  97.9739  50.4340 0017489  35.6924 324.5445 14.63693575742315
CUTE-1.7+APD II (CO-65) 
1 32785U 08021C   19271.13717909  .00000208  00000-0  28060-4 0  9993
2 32785  97.5552 266.0935 0011610 289.2165  70.7796 14.88348647618771
AAUSAT-II               
1 32788U 08021F   19270.86583161  .00000491  00000-0  50075-4 0  9991
2 32788  97.4963 282.1182 0010727 214.1822 145.8709 14.94805078619937
DELFI-C3 (DO-64)        
1 32789U 08021G   19270.94027507  .00001557  00000-0  10747-3 0  9993
2 32789  97.4552 317.5075 0013453 134.5684 225.6644 15.07131108622116
SEEDS II (CO-66)        
1 32791U 08021J   19270.98449758  .00000200  00000-0  25655-4 0  9995
2 32791  97.5313 272.0152 0011766 259.5873 100.4020 14.90874640619209
SWISSCUBE               
1 35932U 09051B   19271.00906271  .00000124  00000-0  38958-4 0  9996
2 35932  98.5978  80.0089 0007055 207.3889 152.6937 14.56312256531523
BEESAT-1                
1 35933U 09051C   19271.07465452  .00000094  00000-0  32132-4 0  9999
2 35933  98.5997  81.8776 0005043 219.3336 140.7496 14.56397859531645
ITUPSAT1                
1 35935U 09051E   19270.70970128  .00000086  00000-0  31041-4 0  9990
2 35935  98.6106  81.7315 0007346 220.7206 139.3442 14.55553943531336
TISAT 1                 
1 36799U 10035E   19271.41225652  .00000273  00000-0  33598-4 0  9994
2 36799  98.1689  67.0216 0013560 110.6826 249.5846 14.91162766499922
M-CUBED & EXP-1 PRIME   
1 37855U 11061F   19271.41486759  .00001385  00000-0  76569-4 0  9995
2 37855 101.7133 219.2295 0173073 135.1589 226.3758 15.05598032432087
AEROCUBE 4.5A           
1 38767U 12048K   19271.55562647  .00000418  00000-0  45536-4 0  9996
2 38767  64.6685 338.2892 0174738 218.7726 140.0744 14.92004925  2576
AEROCUBE 4.5B           
1 38768U 12048L   19271.19852150  .00000486  00000-0  47485-4 0  9998
2 38768  64.6702 312.5470 0164536 215.8674 143.1303 14.95574806  2500
STRAND-1                
1 39090U 13009E   19271.16196237  .00000043  00000-0  30218-4 0  9994
2 39090  98.4792 115.3772 0009089 355.0396   5.0698 14.35098351344946
SOMP                    
1 39134U 13015E   19270.86421168  .00001532  00000-0  78450-4 0  9994
2 39134  64.8636  52.6130 0035908 287.3538  72.3663 15.20341988355598
BEESAT-3                
1 39135U 13015F   19270.83482419  .00000914  00000-0  54605-4 0  9997
2 39135  64.8680  72.4422 0034500 296.3842  63.3744 15.17613420355596
BEESAT-2                
1 39136U 13015G   19271.43773984  .00001046  00000-0  62239-4 0  9994
2 39136  64.8687  74.6105 0026315 301.7342  58.1219 15.17035604355600
NEE-01 PEGASO           
1 39151U 13018B   19271.49336704  .00000170  00000-0  29464-4 0  9995
2 39151  97.9735   7.1897 0016035 228.9393 131.0434 14.80074843346787
ESTCUBE 1               
1 39161U 13021C   19271.19571947  .00000102  00000-0  24039-4 0  9995
2 39161  97.9821 354.2750 0009795   8.5071 351.6298 14.72230364343304
POPACS 1                
1 39268U 13055D   19271.15947429  .00003831  00000-0  10718-3 0  9998
2 39268  81.0045 214.1307 0622514 283.3521  69.9016 14.37673103311618
POPACS 2                
1 39269U 13055E   19271.25936997  .00006145  00000-0  17699-3 0  9994
2 39269  81.0124 246.0163 0682877   5.9711 354.9092 14.24314032309727
POPACS 3                
1 39270U 13055F   19271.29096525  .00002367  00000-0  72192-4 0  9996
2 39270  81.0137 264.0916 0714274  58.2115 308.6609 14.16059048308571
ZACUBE-1 (TSHEPISOSAT)  
1 39417U 13066B   19270.97372078  .00000223  00000-0  34158-4 0  9994
2 39417  97.5628 278.7841 0060303  62.6703 298.0632 14.81151833316034
WNISAT-1                
1 39423U 13066H   19271.34223875  .00000079  00000-0  25456-4 0  9993
2 39423  97.7811 205.9893 0175585 356.5116   3.4843 14.53061644310213
TRITON-1                
1 39427U 13066M   19271.50228150  .00000176  00000-0  36059-4 0  9995
2 39427  97.6883 242.6520 0113197 198.8421 160.8580 14.67882438313279
GOMX-1                  
1 39430U 13066Q   19271.44685898  .00000156  00000-0  37746-4 0  9990
2 39430  97.7567 221.3466 0150161 293.8401  64.7121 14.59288877311440
CUBEBUG-2 (LO-74)       
1 39440U 13066AA  19271.51610748  .00000214  00000-0  36482-4 0  9992
2 39440  97.6086 263.9725 0081605 113.7361 247.2437 14.75889344314992
NEE-02 KRYSAOR          
1 39441U 13066AB  19270.94661892  .00000118  00000-0  23680-4 0  9994
2 39441  97.6134 261.1353 0083010 122.9117 238.0114 14.74931094314727
FUNCUBE-1 (AO-73)       
1 39444U 13066AE  19271.25573824  .00000291  00000-0  41903-4 0  9999
2 39444  97.5603 281.0922 0059339  55.3415 305.3373 14.81978581314972
UWE-3                   
1 39446U 13066AG  19270.93976431  .00000222  00000-0  35878-4 0  9994
2 39446  97.5849 270.5546 0071568  89.6754 271.2658 14.78424170313630
AEROCUBE 5A             
1 39465U 13072D   19270.93489769  .00003662  00000-0  33789-3 0  9994
2 39465 120.4942 290.5970 0268098 338.1878  20.7943 14.74023847  2483
AEROCUBE 5B             
1 39466U 13072E   19270.97236072  .00003033  00000-0  24592-3 0  9990
2 39466 120.4917 313.8289 0244002 343.9601  15.3839 14.82899636  2452
BRITE-CA1 (TORONTO)     
1 40020U 14033L   19271.47244382  .00000046  00000-0  16265-4 0  9995
2 40020  97.7402 109.6360 0087118 191.0028 168.9274 14.66589340282216
DUCHIFAT-1              
1 40021U 14033M   19271.03833826  .00000313  00000-0  37714-4 0  9994
2 40021  97.9234 195.9670 0014397  76.8319 283.4504 14.90688228286648
NANOSATC-BR1            
1 40024U 14033Q   19271.32025974  .00000392  00000-0  46672-4 0  9996
2 40024  97.9120 193.4088 0013697  79.5107 280.7653 14.89894550286570
QB50P1                  
1 40025U 14033R   19270.83940223  .00000251  00000-0  32691-4 0  9995
2 40025  97.9032 190.3491 0013937  86.7038 273.5773 14.88986516285864
QB50P2                  
1 40032U 14033Y   19270.73821923  .00000240  00000-0  31807-4 0  9993
2 40032  97.8947 188.2363 0013302  83.8654 276.4078 14.88518651285757
PERSEUS-M2              
1 40037U 14033AD  19271.47310533  .00000118  00000-0  19521-4 0  9993
2 40037  97.8858 184.7845 0015863  94.1311 266.1718 14.86478002286096
PERSEUS-M1              
1 40039U 14033AF  19271.48284296  .00000114  00000-0  19298-4 0  9999
2 40039  97.8838 183.8154 0015696  91.8393 268.4620 14.86098356286027
POLYITAN-1              
1 40042U 14033AJ  19271.39312753  .00000362  00000-0  44714-4 0  9999
2 40042  97.9112 191.2676 0016078  75.8343 284.4659 14.88703084286361
TIGRISAT                
1 40043U 14033AK  19271.49909289  .00000127  00000-0  25972-4 0  9991
2 40043  97.7423 134.9224 0061042 127.3208 233.3585 14.74293571283607
AEROCUBE 6A             
1 40045U 14033AM  19271.43030252  .00000304  00000-0  50731-4 0  9990
2 40045  97.7656 139.0851 0058878 119.8549 240.8531 14.75428754283569
AEROCUBE 6B             
1 40046U 14033AN  19270.89424870  .00000253  00000-0  43469-4 0  9996
2 40046  97.7585 138.1113 0058175 120.9659 239.7286 14.75410293283245
UKUBE-1                 
1 40074U 14037F   19271.50571710  .00000161  00000-0  26434-4 0  9997
2 40074  98.4476  79.3103 0002983 244.5946 115.4981 14.84100032282750
BRITE-PL2 (HEWELIUSZ)   
1 40119U 14049B   19271.50619067  .00000138  00000-0  22850-4 0  9990
2 40119  97.9037   1.2463 0016171 246.4125 113.5391 14.84427442276770
FIREBIRD 4              
1 40378U 15003C   19271.18830055  .00002344  00000-0  94482-4 0  9995
2 40378  99.1203 272.3473 0127648 112.0411 249.4433 15.19061423257335
GRIFEX                  
1 40379U 15003D   19271.46898133  .00001452  00000-0  65100-4 0  9992
2 40379  99.1212 266.1250 0135609 131.1259 230.1768 15.15673800257004
EXOCUBE (CP10)          
1 40380U 15003E   19271.45311881  .00001257  00000-0  59622-4 0  9998
2 40380  99.1244 262.5285 0140383 143.0095 218.0912 15.13676816256760
AEROCUBE 8A             
1 40659U 15025J   19270.87086354  .00012643  00000-0  16397-3 0  9992
2 40659  55.0181  66.9882 0123122 212.1251 147.2245 15.50771733  2578
AEROCUBE 8B             
1 40660U 15025K   19270.89904631  .00012193  00000-0  15736-3 0  9999
2 40660  55.0166  65.4115 0122527 213.7437 145.5722 15.51013208  2586
TIANWANG 1C (TW-1C)     
1 40926U 15051B   19271.41214300  .00011126  00000-0  15243-3 0  9997
2 40926  97.1264 317.5135 0007407   8.4084  47.7780 15.57518510225986
TIANWANG 1A (TW-1A)     
1 40928U 15051D   19271.51649253  .00002453  00000-0  60853-4 0  9990
2 40928  97.1400 300.5533 0012703  66.9000  72.0891 15.41238526224854
EXACTVIEW 9             
1 40936U 15052G   19271.34566900  .00000818  00000-0  25406-4 0  9996
2 40936   6.0040  56.3038 0010106 143.4222 216.6596 14.76510868216274
AEROCUBE 5C             
1 40965U 15058B   19271.20049651 -.00000079  00000-0  10537-4 0  9997
2 40965  64.7791 221.1663 0186040 169.4990 191.0081 14.74413930  2499
AEROCUBE 7              
1 40966U 15058C   19271.23243890 -.00000058  00000-0  12958-4 0  9998
2 40966  64.7783 219.9035 0184791 169.1989 191.3172 14.74690000  2494
ATHENOXAT 1             
1 41168U 15077C   19270.98786588  .00002184  00000-0  80293-4 0  9999
2 41168  14.9877 193.6409 0011434  62.4518 297.6964 15.13788299209354
GALASSIA                
1 41170U 15077E   19269.97076674  .00001912  00000-0  64888-4 0  9997
2 41170  14.9881 193.8735 0012886  73.2589 286.9145 15.14111273209261
VELOX-II                
1 41171U 15077F   19271.07803055  .00001649  00000-0  56474-4 0  9992
2 41171  14.9908 221.6353 0008723   0.4993 359.5335 15.11314374209110
